start=new Date('2022-04-28T00:00:00.000Z').valueOf();
sats=[{"OBJECT_ID":"2020-012AM","TIME_SYSTEM":"UTC","EPOCH":"2022-04-27T11:47:10.556160","REF_FRAME":"TEME","OBJECT_TYPE":"PAYLOAD","LAUNCH_DATE":"2020-02-17","ELEMENT_SET_NO":"999","MEAN_ANOMALY":"292.3787","MEAN_ELEMENT_THEORY":"SGP4","CLASSIFICATION_TYPE":"U","MEAN_MOTION":"15.38544112","ARG_OF_PERICENTER":"67.7617","NORAD_CAT_ID":"45213","OBJECT_NAME":"STARLINK-1232","SITE":"AFETR","REV_AT_EPOCH":"12254","MEAN_MOTION_DDOT":"0.0000000000000","PERIOD":"93.595","APOAPSIS":"452.999","DECAY_DATE":null,"CENTER_NAME":"EARTH","COUNTRY_CODE":"US","RA_OF_ASC_NODE":"227.0431","INCLINATION":"53.0602","TLE_LINE2":"2 45213  53.0602 227.0431 0003783  67.7617 292.3787 15.38544112122543","SEMIMAJOR_AXIS":"6828.551","FILE":"3418497","MEAN_MOTION_DOT":"0.00013352","PERIAPSIS":"447.832","GP_ID":"202156525","ECCENTRICITY":"0.00037830","RCS_SIZE":"LARGE","BSTAR":"0.00035533000000","EPHEMERIS_TYPE":"0","TLE_LINE1":"1 45213U 20012AM  22117.49109440  .00013352  00000-0  35533-3 0  9990"},{"MEAN_MOTION_DDOT":"0.0000000000000","REV_AT_EPOCH":"12136","SITE":"AFETR","APOAPSIS":"548.548","CENTER_NAME":"EARTH","DECAY_DATE":null,"PERIOD":"95.593","NORAD_CAT_ID":"45214","OBJECT_NAME":"STARLINK-1233","ELEMENT_SET_NO":"999","LAUNCH_DATE":"2020-02-17","MEAN_ANOMALY":"297.5621","MEAN_ELEMENT_THEORY":"SGP4","REF_FRAME":"TEME","OBJECT_TYPE":"PAYLOAD","ARG_OF_PERICENTER":"62.5559","MEAN_MOTION":"15.06389514","CLASSIFICATION_TYPE":"U","TIME_SYSTEM":"UTC","OBJECT_ID":"2020-012AN","EPOCH":"2022-04-27T18:06:11.974464","RCS_SIZE":"LARGE","ECCENTRICITY":"0.00018800","BSTAR":"0.00010706000000","GP_ID":"202165990","TLE_LINE1":"1 45214U 20012AN  22117.75430526  .00001313  00000-0  10706-3 0  9991","EPHEMERIS_TYPE":"0","SEMIMAJOR_AXIS":"6925.381","PERIAPSIS":"545.944","FILE":"3418710","MEAN_MOTION_DOT":"0.00001313","TLE_LINE2":"2 45214  53.0542 245.0481 0001880  62.5559 297.5621 15.06389514121367","RA_OF_ASC_NODE":"245.0481","COUNTRY_CODE":"US","INCLINATION":"53.0542"},{"TLE_LINE2":"2 45215  53.0552 246.8424 0001834  78.6280 281.4915 15.06392289122185","INCLINATION":"53.0552","COUNTRY_CODE":"US","RA_OF_ASC_NODE":"246.8424","EPHEMERIS_TYPE":"0","TLE_LINE1":"1 45215U 20012AP  22117.35252740  .00002712  00000-0  20092-3 0  9991","GP_ID":"202155024","RCS_SIZE":"LARGE","ECCENTRICITY":"0.00018340","BSTAR":"0.00020092000000","FILE":"3418497","MEAN_MOTION_DOT":"0.00002712","PERIAPSIS":"545.967","SEMIMAJOR_AXIS":"6925.372","MEAN_MOTION":"15.06392289","CLASSIFICATION_TYPE":"U","ARG_OF_PERICENTER":"78.6280","OBJECT_TYPE":"PAYLOAD","REF_FRAME":"TEME","LAUNCH_DATE":"2020-02-17","ELEMENT_SET_NO":"999","MEAN_ELEMENT_THEORY":"SGP4","MEAN_ANOMALY":"281.4915","EPOCH":"2022-04-27T08:27:38.367360","OBJECT_ID":"2020-012AP","TIME_SYSTEM":"UTC","PERIOD":"95.593","APOAPSIS":"548.507","CENTER_NAME":"EARTH","DECAY_DATE":null,"SITE":"AFETR","MEAN_MOTION_DDOT":"0.0000000000000","REV_AT_EPOCH":"12218","OBJECT_NAME":"STARLINK-1245","NORAD_CAT_ID":"45215"},{"OBJECT_TYPE":"PAYLOAD","REF_FRAME":"TEME","LAUNCH_DATE":"2020-02-17","MEAN_ANOMALY":"303.3257","ELEMENT_SET_NO":"999","MEAN_ELEMENT_THEORY":"SGP4","MEAN_MOTION":"15.06405111","CLASSIFICATION_TYPE":"U","ARG_OF_PERICENTER":"56.7887","OBJECT_ID":"2020-012AR","TIME_SYSTEM":"UTC","EPOCH":"2022-04-27T12:37:06.271392","SITE":"AFETR","REV_AT_EPOCH":"12133","MEAN_MOTION_DDOT":"0.0000000000000","PERIOD":"95.592","APOAPSIS":"548.318","CENTER_NAME":"EARTH","DECAY_DATE":null,"NORAD_CAT_ID":"45217","OBJECT_NAME":"STARLINK-1271","TLE_LINE2":"2 45217  53.0539 246.0727 0001618  56.7887 303.3257 15.06405111121338","COUNTRY_CODE":"US","RA_OF_ASC_NODE":"246.0727","INCLINATION":"53.0539","GP_ID":"202131288","ECCENTRICITY":"0.00016180","RCS_SIZE":"LARGE","BSTAR":"0.00013579000000","EPHEMERIS_TYPE":"0","TLE_LINE1":"1 45217U 20012AR  22117.52576703  .00001742  00000-0  13579-3 0  9994","SEMIMAJOR_AXIS":"6925.333","FILE":"3418241","MEAN_MOTION_DOT":"0.00001742","PERIAPSIS":"546.077"},{"TLE_LINE2":"2 45219  53.0551 225.7808 0001643  58.6834 301.4316 15.06381895122573","INCLINATION":"53.0551","RA_OF_ASC_NODE":"225.7808","COUNTRY_CODE":"US","EPHEMERIS_TYPE":"0","TLE_LINE1":"1 45219U 20012AT  22117.59029019  .00000259  00000-0  36312-4 0  9999","BSTAR":"0.00003631200000","RCS_SIZE":"LARGE","ECCENTRICITY":"0.00016430","GP_ID":"202156025","PERIAPSIS":"546.131","MEAN_MOTION_DOT":"0.00000259","FILE":"3418497","SEMIMAJOR_AXIS":"6925.404","ARG_OF_PERICENTER":"58.6834","CLASSIFICATION_TYPE":"U","MEAN_MOTION":"15.06381895","LAUNCH_DATE":"2020-02-17","ELEMENT_SET_NO":"999","MEAN_ELEMENT_THEORY":"SGP4","MEAN_ANOMALY":"301.4316","OBJECT_TYPE":"PAYLOAD","REF_FRAME":"TEME","EPOCH":"2022-04-27T14:10:01.072416","TIME_SYSTEM":"UTC","OBJECT_ID":"2020-012AT","DECAY_DATE":null,"CENTER_NAME":"EARTH","APOAPSIS":"548.407","PERIOD":"95.593","MEAN_MOTION_DDOT":"0.0000000000000","REV_AT_EPOCH":"12257","SITE":"AFETR","OBJECT_NAME":"STARLINK-1187","NORAD_CAT_ID":"45219"},{"RCS_SIZE":"LARGE","ECCENTRICITY":"0.00018190","BSTAR":"-0.00000358510000","GP_ID":"202156771","TLE_LINE1":"1 45221U 20012AV  22117.59396925 -.00000335  00000-0 -35851-5 0  9990","EPHEMERIS_TYPE":"0","SEMIMAJOR_AXIS":"6925.384","PERIAPSIS":"545.990","FILE":"3418497","MEAN_MOTION_DOT":"-0.00000335","TLE_LINE2":"2 45221  53.0595 225.7780 0001819  67.6022 292.5160 15.06388346122561","RA_OF_ASC_NODE":"225.7780","COUNTRY_CODE":"US","INCLINATION":"53.0595","MEAN_MOTION_DDOT":"0.0000000000000","REV_AT_EPOCH":"12256","SITE":"AFETR","APOAPSIS":"548.509","CENTER_NAME":"EARTH","DECAY_DATE":null,"PERIOD":"95.593","NORAD_CAT_ID":"45221","OBJECT_NAME":"STARLINK-1189","LAUNCH_DATE":"2020-02-17","MEAN_ELEMENT_THEORY":"SGP4","ELEMENT_SET_NO":"999","MEAN_ANOMALY":"292.5160","OBJECT_TYPE":"PAYLOAD","REF_FRAME":"TEME","ARG_OF_PERICENTER":"67.6022","MEAN_MOTION":"15.06388346","CLASSIFICATION_TYPE":"U","TIME_SYSTEM":"UTC","OBJECT_ID":"2020-012AV","EPOCH":"2022-04-27T14:15:18.943200"},{"ARG_OF_PERICENTER":"53.8129","MEAN_MOTION":"15.06391351","CLASSIFICATION_TYPE":"U","LAUNCH_DATE":"2020-02-17","ELEMENT_SET_NO":"999","MEAN_ELEMENT_THEORY":"SGP4","MEAN_ANOMALY":"306.3008","REF_FRAME":"TEME","OBJECT_TYPE":"PAYLOAD","EPOCH":"2022-04-27T19:12:33.153408","TIME_SYSTEM":"UTC","OBJECT_ID":"2020-012AW","APOAPSIS":"548.352","DECAY_DATE":null,"CENTER_NAME":"EARTH","PERIOD":"95.593","MEAN_MOTION_DDOT":"0.0000000000000","REV_AT_EPOCH":"12165","SITE":"AFETR","OBJECT_NAME":"STARLINK-1191","NORAD_CAT_ID":"45222","TLE_LINE2":"2 45222  53.0526 224.8317 0001605  53.8129 306.3008 15.06391351121654","INCLINATION":"53.0526","RA_OF_ASC_NODE":"224.8317","COUNTRY_CODE":"US","EPHEMERIS_TYPE":"0","TLE_LINE1":"1 45222U 20012AW  22117.80038372  .00002491  00000-0  18614-3 0  9993","ECCENTRICITY":"0.00016050","RCS_SIZE":"LARGE","BSTAR":"0.00018614000000","GP_ID":"202165863","PERIAPSIS":"546.129","FILE":"3418702","MEAN_MOTION_DOT":"0.00002491","SEMIMAJOR_AXIS":"6925.375"},{"OBJECT_ID":"2020-012AX","TIME_SYSTEM":"UTC","EPOCH":"2022-04-27T13:22:13.781280","REF_FRAME":"TEME","OBJECT_TYPE":"PAYLOAD","ELEMENT_SET_NO":"999","LAUNCH_DATE":"2020-02-17","MEAN_ELEMENT_THEORY":"SGP4","MEAN_ANOMALY":"312.1447","CLASSIFICATION_TYPE":"U","MEAN_MOTION":"15.06398986","ARG_OF_PERICENTER":"47.9710","NORAD_CAT_ID":"45223","OBJECT_NAME":"STARLINK-1212","SITE":"AFETR","MEAN_MOTION_DDOT":"0.0000000000000","REV_AT_EPOCH":"12256","PERIOD":"95.592","DECAY_DATE":null,"CENTER_NAME":"EARTH","APOAPSIS":"548.589","COUNTRY_CODE":"US","RA_OF_ASC_NODE":"225.9414","INCLINATION":"53.0542","TLE_LINE2":"2 45223  53.0542 225.9414 0001982  47.9710 312.1447 15.06398986122565","SEMIMAJOR_AXIS":"6925.352","MEAN_MOTION_DOT":"0.00002512","FILE":"3418497","PERIAPSIS":"545.844","GP_ID":"202155274","BSTAR":"0.00018748000000","ECCENTRICITY":"0.00019820","RCS_SIZE":"LARGE","EPHEMERIS_TYPE":"0","TLE_LINE1":"1 45223U 20012AX  22117.55710395  .00002512  00000-0  18748-3 0  9990"},{"SEMIMAJOR_AXIS":"6701.835","PERIAPSIS":"319.660","FILE":"3418497","MEAN_MOTION_DOT":"0.00126740","ECCENTRICITY":"0.00060280","RCS_SIZE":"LARGE","BSTAR":"0.00059255000000","GP_ID":"202156526","EPHEMERIS_TYPE":"0","TLE_LINE1":"1 45224U 20012AY  22117.28113249  .00126740  00000-0  59255-3 0  9994","RA_OF_ASC_NODE":"72.4669","COUNTRY_CODE":"US","INCLINATION":"53.0432","TLE_LINE2":"2 45224  53.0432  72.4669 0006028  62.3632 297.8001 15.82385186124560","NORAD_CAT_ID":"45224","OBJECT_NAME":"STARLINK-1214","MEAN_MOTION_DDOT":"0.0000000000000","REV_AT_EPOCH":"12456","SITE":"AFETR","APOAPSIS":"327.739","CENTER_NAME":"EARTH","DECAY_DATE":null,"PERIOD":"91.002","TIME_SYSTEM":"UTC","OBJECT_ID":"2020-012AY","EPOCH":"2022-04-27T06:44:49.847136","LAUNCH_DATE":"2020-02-17","ELEMENT_SET_NO":"999","MEAN_ELEMENT_THEORY":"SGP4","MEAN_ANOMALY":"297.8001","REF_FRAME":"TEME","OBJECT_TYPE":"PAYLOAD","ARG_OF_PERICENTER":"62.3632","MEAN_MOTION":"15.82385186","CLASSIFICATION_TYPE":"U"},{"REF_FRAME":"TEME","OBJECT_TYPE":"PAYLOAD","MEAN_ANOMALY":"312.4041","LAUNCH_DATE":"2020-02-17","ELEMENT_SET_NO":"999","MEAN_ELEMENT_THEORY":"SGP4","MEAN_MOTION":"15.06388134","CLASSIFICATION_TYPE":"U","ARG_OF_PERICENTER":"47.7093","OBJECT_ID":"2020-012AZ","TIME_SYSTEM":"UTC","EPOCH":"2022-04-27T13:48:46.463328","SITE":"AFETR","REV_AT_EPOCH":"12162","MEAN_MOTION_DDOT":"0.0000000000000","PERIOD":"95.593","APOAPSIS":"548.434","CENTER_NAME":"EARTH","DECAY_DATE":null,"NORAD_CAT_ID":"45225","OBJECT_NAME":"STARLINK-1215","TLE_LINE2":"2 45225  53.0538 225.8326 0001710  47.7093 312.4041 15.06388134121627","COUNTRY_CODE":"US","RA_OF_ASC_NODE":"225.8326","INCLINATION":"53.0538","GP_ID":"202130672","RCS_SIZE":"LARGE","ECCENTRICITY":"0.00017100","BSTAR":"-0.00004927800000","TLE_LINE1":"1 45225U 20012AZ  22117.57553777 -.00001015  00000-0 -49278-4 0  9995","EPHEMERIS_TYPE":"0","SEMIMAJOR_AXIS":"6925.385","FILE":"3418234","MEAN_MOTION_DOT":"-0.00001015","PERIAPSIS":"546.066"}];
